CHINASAT 11 (ZX 11)     
1 39157U 13020A   17345.79424260 -.00000297  00000-0  00000-0 0  9994
2 39157   0.0096  65.2856 0003856 215.2194 184.1136  1.00269674 16972
